SPOT 6                  
1 38755U 12047A   26187.26924359  .00000546  00000+0  12738-3 0  9994
2 38755  98.2107 254.3544 0001180  79.3379 280.7953 14.58535872735830
SPOT 7                  
1 40053U 14034A   26187.28991211  .00000740  00000+0  16028-3 0  9991
2 40053  98.0614 249.2891 0001508  98.4807 261.6565 14.60976976639922
