{"fetched_at":"2026-07-06T18:35:55.955Z","source":"https://celestrak.org/NORAD/elements/gp.php?NAME=SPOT&FORMAT=JSON","constellation":"spot","records":[{"OBJECT_NAME":"SPOT 6","OBJECT_ID":"2012-047A","EPOCH":"2026-07-06T06:27:42.646176","CLASSIFICATION_TYPE":"U","MEAN_MOTION":14.58535872,"ECCENTRICITY":0.00011807,"INCLINATION":98.2107,"RA_OF_ASC_NODE":254.3544,"ARG_OF_PERICENTER":79.3379,"MEAN_ANOMALY":280.7953,"EPHEMERIS_TYPE":0,"NORAD_CAT_ID":38755,"ELEMENT_SET_NO":999,"REV_AT_EPOCH":73583,"BSTAR":0.00012737756,"MEAN_MOTION_DOT":0.00000546,"MEAN_MOTION_DDOT":0},{"OBJECT_NAME":"SPOT 7","OBJECT_ID":"2014-034A","EPOCH":"2026-07-06T06:57:28.406304","CLASSIFICATION_TYPE":"U","MEAN_MOTION":14.60976976,"ECCENTRICITY":0.00015089,"INCLINATION":98.0614,"RA_OF_ASC_NODE":249.2891,"ARG_OF_PERICENTER":98.4807,"MEAN_ANOMALY":261.6565,"EPHEMERIS_TYPE":0,"NORAD_CAT_ID":40053,"ELEMENT_SET_NO":999,"REV_AT_EPOCH":63992,"BSTAR":0.00016028176,"MEAN_MOTION_DOT":0.0000074,"MEAN_MOTION_DDOT":0}]}
